STARLINK-4580           
1 53579U 22101BE  24275.21885368  .00001078  00000+0  85844-4 0  9994
2 53579  53.2162 248.1526 0001550 103.0822 257.0344 15.08832179117272
STARLINK-4691           
1 53588U 22104A   24274.48753015  .00001243  00000+0  96193-4 0  9991
2 53588  53.2138  82.0916 0001542  91.3653 268.7516 15.08839240116809
STARLINK-4673           
1 53589U 22104B   24274.86654967  .00000467  00000+0  47460-4 0  9990
2 53589  53.2171  80.1917 0001604 104.6257 255.4913 15.08838208116711
STARLINK-4689           
1 53590U 22104C   24274.88128112  .00001608  00000+0  11907-3 0  9996
2 53590  53.2146  80.2847 0001364  88.1073 272.0076 15.08843954115698
STARLINK-4674           
1 53591U 22104D   24274.74512060  .00003512  00000+0  23866-3 0  9994
2 53591  53.2151  80.8546 0001436 101.5486 258.5667 15.08834985116718
STARLINK-4672           
1 53592U 22104E   24274.74239348  .00000076  00000+0  22899-4 0  9998
2 53592  53.2159  80.8407 0001522  92.4946 267.6220 15.08838619116699
STARLINK-4671           
1 53593U 22104F   24274.78853656  .00091189  00000+0  44574-2 0  9994
2 53593  53.2093  79.0219 0004858 262.3558  97.6886 15.17466503116722
STARLINK-4681           
1 53594U 22104G   24274.79293000  .00001566  00000+0  11641-3 0  9997
2 53594  53.2152  80.4445 0001393  92.5604 267.5547 15.08847906116847
STARLINK-4684           
1 53595U 22104H   24274.73038182  .00002184  00000+0  15524-3 0  9991
2 53595  53.2154  80.7660 0001400  86.8161 273.2992 15.08842133116693
STARLINK-4668           
1 53596U 22104J   24274.72490849  .00061383  00000+0  23576-2 0  9994
2 53596  53.2111  67.4791 0002748 138.0000 222.1211 15.25889448116553
STARLINK-4682           
1 53597U 22104K   24274.91667824  .00579726  00000+0  43954-2 0  9992
2 53597  53.2191  67.6105 0000632 341.9892 126.8757 15.70081873  5948
STARLINK-4676           
1 53598U 22104L   24274.77082671  .00000995  00000+0  80628-4 0  9996
2 53598  53.2152  80.3083 0001337  89.3133 270.8013 15.08837367115683
STARLINK-4677           
1 53600U 22104N   24274.76818357  .00003338  00000+0  22778-3 0  9992
2 53600  53.2178  80.9866 0001443 100.6073 259.5081 15.08833237116084
STARLINK-4675           
1 53601U 22104P   24275.17932714 -.00000285  00000+0  23048-6 0  9996
2 53601  53.2174  78.5930 0002050  82.2611 277.8613 15.08835744115745
STARLINK-4648           
1 53602U 22104Q   24274.85411044  .00002192  00000+0  15571-3 0  9996
2 53602  53.2154  75.1373 0001080  91.1545 268.9571 15.08845131116459
STARLINK-4692           
1 53603U 22104R   24274.87621637  .00000458  00000+0  46859-4 0  9997
2 53603  53.2154  75.2713 0001544  92.9812 267.1357 15.08838791116457
STARLINK-4690           
1 53604U 22104S   24275.17795037  .00005168  00000+0  34268-3 0  9991
2 53604  53.2137  73.5992 0001900  94.6973 265.4236 15.08829137115812
STARLINK-4693           
1 53605U 22104T   24274.44331686  .00001705  00000+0  12521-3 0  9998
2 53605  53.2185  81.8181 0001484 100.2283 259.8876 15.08838139116329
STARLINK-4590           
1 53606U 22104U   24274.73867752  .00001284  00000+0  98772-4 0  9994
2 53606  53.2168  70.8264 0001201  91.0547 269.0582 15.08835868116387
STARLINK-4591           
1 53607U 22104V   24274.73268515 -.00000862  00000+0 -36093-4 0  9998
2 53607  53.2125  75.7949 0001331  86.8872 273.2272 15.08839544116436
STARLINK-4647           
1 53608U 22104W   24274.41484800  .00001529  00000+0  11412-3 0  9997
2 53608  53.2189  72.3600 0001579  86.5117 273.6056 15.08836617116338
STARLINK-4660           
1 53609U 22104X   24274.50081276  .00001245  00000+0  96307-4 0  9990
2 53609  53.2193  76.4840 0001516  93.0833 267.0333 15.08834820115714
STARLINK-4610           
1 53610U 22104Y   24274.87210889  .00000625  00000+0  57382-4 0  9997
2 53610  53.2191  70.2400 0001238  85.0309 275.0825 15.08839317116406
STARLINK-4650           
1 53611U 22104Z   24274.91667824  .00078945  00000+0  34427-2 0  9991
2 53611  53.2095  61.5572 0007077 286.9220  50.3002 15.21472954  5878
STARLINK-4658           
1 53612U 22104AA  24274.73498126  .00001822  00000+0  13250-3 0  9991
2 53612  53.2132  70.8028 0001118  77.9784 282.1334 15.08842249116388
STARLINK-4655           
1 53613U 22104AB  24274.80860131  .00000570  00000+0  53898-4 0  9991
2 53613  53.2148  70.5519 0001322  93.4205 266.6938 15.08837441116392
STARLINK-4605           
1 53616U 22104AE  24274.40100420  .00002784  00000+0  19291-3 0  9995
2 53616  53.2134  62.1012 0001399  79.8149 280.3001 15.08841112116589
STARLINK-4601           
1 53617U 22104AF  24274.73130084  .00000732  00000+0  64053-4 0  9999
2 53617  53.2124  70.7817 0001501  97.1859 262.9304 15.08837788116387
STARLINK-4604           
1 53618U 22104AG  24274.72024611 -.00000278  00000+0  60307-6 0  9993
2 53618  53.2145  70.7139 0001435  89.1506 270.9651 15.08841153115805
STARLINK-4609           
1 53619U 22104AH  24274.72761383  .00000396  00000+0  42989-4 0  9992
2 53619  53.2143  70.7579 0001470  92.6772 267.4388 15.08846233116381
STARLINK-4615           
1 53620U 22104AJ  24274.71287907  .00000298  00000+0  36840-4 0  9998
2 53620  53.2163  70.6689 0001786  90.3064 269.8132 15.08843225116498
STARLINK-4608           
1 53621U 22104AK  24274.72392452  .00000406  00000+0  43571-4 0  9992
2 53621  53.2142  70.7353 0001401  95.5186 264.5966 15.08846943116386
STARLINK-4568           
1 53622U 22104AL  24274.42581071  .00001237  00000+0  95777-4 0  9995
2 53622  53.2171  71.7234 0001353  88.4828 271.6319 15.08845068116454
STARLINK-4573           
1 53623U 22104AM  24274.71658374 -.00002654  00000+0 -14881-3 0  9991
2 53623  53.2155  70.6908 0001980  92.1179 268.0040 15.08819334116492
STARLINK-4596           
1 53624U 22104AN  24274.70550725  .00000562  00000+0  53416-4 0  9994
2 53624  53.2154  70.6236 0001189  86.7538 273.3590 15.08841739116498
STARLINK-4603           
1 53625U 22104AP  24274.70919105  .00001302  00000+0  99870-4 0  9993
2 53625  53.2169  70.6463 0001813  86.4132 273.7067 15.08844397116494
STARLINK-4554           
1 53626U 22104AQ  24274.49573916 -.00001322  00000+0 -64987-4 0  9991
2 53626  53.2158  71.4458 0001465  86.3128 273.8032 15.08834074116475
STARLINK-4595           
1 53627U 22104AR  24274.83430866  .00000295  00000+0  36617-4 0  9991
2 53627  53.2162  70.0056 0001619  90.1200 269.9977 15.08839419116523
STARLINK-4600           
1 53628U 22104AS  24274.81956294  .00002202  00000+0  15638-3 0  9997
2 53628  53.2191  69.9129 0001228  91.6375 268.4758 15.08850381116521
STARLINK-4602           
1 53629U 22104AT  24274.43317914  .00000326  00000+0  38586-4 0  9999
2 53629  53.2178  71.7666 0001557  88.7912 271.3259 15.08841523116463
STARLINK-4598           
1 53630U 22104AU  24274.40198610  .00002072  00000+0  14823-3 0  9995
2 53630  53.2100  62.2984 0003358  83.4304 276.7070 15.08845580116766
STARLINK-4599           
1 53631U 22104AV  24274.48468155  .00000626  00000+0  57388-4 0  9995
2 53631  53.2163  71.3780 0001268  96.5436 263.5701 15.08840859116477
STARLINK-4606           
1 53632U 22104AW  24274.79110533  .00000348  00000+0  39949-4 0  9998
2 53632  53.2160  60.4622 0001534  84.8454 275.2713 15.08835109116986
STARLINK-4593           
1 53633U 22104AX  24274.79477644  .00001590  00000+0  11798-3 0  9999
2 53633  53.2156  60.4841 0001418  94.4896 265.6258 15.08841135116650
STARLINK-4592           
1 53634U 22104AY  24274.84996842  .00002470  00000+0  17327-3 0  9994
2 53634  53.2124  60.1200 0001512  84.7997 275.3167 15.08831714116997
STARLINK-4587           
1 53635U 22104AZ  24274.78740780 -.00002988  00000+0 -16965-3 0  9999
2 53635  53.2153  60.4431 0001611  94.9641 265.1535 15.08849981115965
STARLINK-4586           
1 53636U 22104BA  24274.77637743  .00026083  00000+0  16490-2 0  9995
2 53636  53.2162  60.3721 0001382  84.4991 275.6159 15.08881829116982
STARLINK-4396           
1 53637U 22104BB  24274.41303426  .00000341  00000+0  39491-4 0  9992
2 53637  53.2143  62.3597 0001459  85.0044 275.1114 15.08843159116920
STARLINK-4594           
1 53638U 22104BC  24274.42673285  .00001088  00000+0  86415-4 0  9994
2 53638  53.2174  61.7454 0001641 103.0493 257.0682 15.08844298116937
STARLINK-4422           
1 53639U 22104BD  24274.77266596  .00001833  00000+0  13323-3 0  9991
2 53639  53.2136  60.3498 0001620  85.5733 274.5444 15.08836927116814
STARLINK-4597           
1 53640U 22104BE  24274.70274618  .00000775  00000+0  66758-4 0  9995
2 53640  53.2174  60.6243 0001570  91.3963 268.7209 15.08844214116972
STARLINK-4588           
1 53641U 22104BF  24274.71380465  .00000152  00000+0  27616-4 0  9994
2 53641  53.2146  60.6904 0001269 101.5503 258.5632 15.08833927116971
STARLINK-4622           
1 53648U 22105A   24275.15745051  .00002125  00000+0  16994-3 0  9995
2 53648  97.6610 154.4712 0002406 110.8910 249.2572 15.01275322114839
STARLINK-4386           
1 53649U 22105B   24275.22226544 -.00004327  00000+0 -33237-3 0  9992
2 53649  97.6569 154.5425 0001793  96.7149 263.4279 15.01276900114823
STARLINK-4380           
1 53650U 22105C   24275.22041846 -.00002317  00000+0 -17581-3 0  9995
2 53650  97.6527 154.5451 0003290  86.1265 274.0336 15.01272949114825
STARLINK-4388           
1 53651U 22105D   24275.21856525  .00001177  00000+0  96238-4 0  9991
2 53651  97.6547 154.5396 0002465  87.2094 272.9412 15.01258529114821
STARLINK-4374           
1 53652U 22105E   24275.21671497  .00000404  00000+0  36010-4 0  9999
2 53652  97.6548 154.5414 0002611  88.8983 271.2540 15.01263191114826
STARLINK-4390           
1 53653U 22105F   24275.16857584 -.00000230  00000+0 -13285-4 0  9995
2 53653  97.6595 154.4317 0000836 191.1949 168.9257 15.01256465114819
STARLINK-4420           
1 53654U 22105G   24275.21113582  .00006288  00000+0  49329-3 0  9999
2 53654  97.6584 154.5353 0003041  91.7401 268.4172 15.01289053114820
